#aV2008  8  8  0  0   .00000000      96 DD+AD WGS84 FIT  NGA
## 1491 432000.00000000   900.00000000 54686  .0000000000000
+   31     2  3  4  5  6  7  8  9 10 11 12 13 14 15 16 17 18
+         19 20 21 22 23 24 25 26 27 28 29 30 31 32  0  0  0
+          0  0  0  0  0  0  0  0  0  0  0  0  0  0  0  0  0
+          0  0  0  0  0  0  0  0  0  0  0  0  0  0  0  0  0
+          0  0  0  0  0  0  0  0  0  0  0  0  0  0  0  0  0
++         0  0  0  0  0  0  0  0  0  0  0  0  0  0  0  0  0
++         0  0  0  0  0  0  0  0  0  0  0  0  0  0  0  0  0
++         0  0  0  0  0  0  0  0  0  0  0  0  0  0  0  0  0
++         0  0  0  0  0  0  0  0  0  0  0  0  0  0  0  0  0
++         0  0  0  0  0  0  0  0  0  0  0  0  0  0  0  0  0
%c cc cc ccc ccc cccc cccc cccc cccc ccccc ccccc ccccc ccccc
%c cc cc ccc ccc cccc cccc cccc cccc ccccc ccccc ccccc ccccc
%f  0.0000000  0.000000000  0.00000000000  0.000000000000000
%f  0.0000000  0.000000000  0.00000000000  0.000000000000000
%i    0    0    0    0      0      0      0      0         0
%i    0    0    0    0      0      0      0      0         0
/*      NGA, ST. LOUIS,MO.                                  
/*   EPHEMERIS COMPUTED FROM  3 DAYS OF DATA                
/* CCCCCCCCCCCCCCCCCCCCCCCCCCCCCCCCCCCCCCCCCCCCCCCCCCCCCCCCC
/* CCCCCCCCCCCCCCCCCCCCCCCCCCCCCCCCCCCCCCCCCCCCCCCCCCCCCCCCC
*  2008  8  8 16  0   .00000000                                                 
P  2   6400.537539  19080.089094  17370.919291    196.335499                    
V  2 -19722.337109 -10466.530195  18247.341134      -.027015                    
P  3    -52.037255 -17789.303910 -19893.784160    266.864315                    
V  3  21744.533497 -12250.901191  11406.648087       .052632                    
P  4  -6843.731739  14085.133257  21328.392430   -137.073462                    
V  4 -23063.223803 -14839.304740   2751.519025      -.103303                    
P  5  14532.044908  10179.967820  19519.859764    747.014694                    
V  5   -429.943575  25459.089066 -12635.330365     -2.963733                    
P  6   6097.868097 -18533.399223 -17834.128513    166.315818                    
V  6  21173.244819  -9502.205813  16920.946648       .015496                    
P  7 -22960.015488  -4474.366262 -12694.615165      6.206884                    
V  7 -12230.754447 -10590.692600  25828.822627       .043115                    
P  8 -16150.823605   5162.305229 -20654.248865   -165.075834                    
V  8 -20521.636601 -15715.335615  11696.459198      -.015329                    
P  9  21621.094033  15383.253262  -2918.511132      9.080056                    
V  9  -3666.419459    455.088373 -31638.447903       .017667                    
P 10   1344.648262  25908.901105  -4942.967825     -3.652737                    
V 10  -3435.436371   5903.079282  31175.496531      -.004372                    
P 11 -24252.476572 -11176.245273  -1576.221948     22.011511                    
V 11   3446.693384  -3656.961118 -29825.177442      -.006516                    
P 12  11726.257064  15526.836618  18203.054254   -355.096688                    
V 12  -2760.426926  22782.609729 -17635.535041       .010390                    
P 13 -24639.058046   4984.483391   8440.412942    266.893866                    
V 13   9258.710758  -5886.881127  30082.971137       .013965                    
P 14  19887.806638 -15407.973327   8441.463623   -234.577391                    
V 14  10357.463832  -2815.081293 -30010.955036       .045255                    
P 15   9385.164391  12246.218072 -21597.521283   -156.526269                    
V 15 -24246.507221  12952.384421  -3177.139985      -.064607                    
P 16   2634.341287 -26299.207408    945.062748    113.168216                    
V 16   2728.198726   1338.921379  31986.017786      -.018440                    
P 17 -19281.850607  16051.638038   8494.148614     38.958263                    
V 17 -10892.756176   2258.635087 -29309.403728       .001879                    
P 18  15422.099486  -5575.309817 -20629.426222   -147.261546                    
V 18  -1361.679244  26754.647678  -8537.707501       .042301                    
P 19 -10031.295988 -12090.445069 -21357.754476     34.483198                    
V 19  25001.870919 -10960.981810  -5318.879882       .003930                    
P 20 -13142.637133 -13099.477279  18902.547426    108.015866                    
V 20   2475.034917 -24201.432385 -14927.246860      -.010583                    
P 21  21299.477848    323.810181 -16027.416203     55.178085                    
V 21  15760.625083  13370.577458  20331.988242      -.013725                    
P 22  11799.119461 -19355.753339 -13631.345052    211.370760                    
V 22    940.003977  17814.237386 -24259.884889       .000401                    
P 23 -19983.057508  -3194.721794  17275.496607    368.099509                    
V 23  18988.714394 -11065.426979  19586.825826       .016855                    
P 24  22834.887342  12201.138232  -5067.586585    115.566079                    
V 24   3485.241824   6589.778826  30850.152473       .028890                    
P 25 -24359.928638  -8610.022853  -5381.214384   -215.157740                    
V 25  -5177.348607  -5876.264848  30984.178242      -.123176                    
P 26   4546.023251  14051.543393 -22545.006182    306.485050                    
V 26 -25114.115024  10879.543620   2273.083083       .062940                    
P 27 -22232.772216  -1789.433813 -13841.091112    208.633616                    
V 27 -15178.960636 -11053.150261  24502.100049       .027914                    
P 28 -11770.482136  18207.312798 -14720.892284    -21.711789                    
V 28   -677.983700 -19632.827798 -23461.091598      -.002275                    
P 29  23849.315099  -2491.569370  11500.853569    -40.276996                    
V 29 -11981.258408   8417.432548  26972.104725       .007169                    
P 30  15291.262243    208.696348  21365.313900     90.091888                    
V 30   -389.768113  28003.268788    100.099425       .019567                    
P 31   3575.437849 -15351.872285  21564.651173    -25.039640                    
V 31  22856.171109  14193.572621   6481.634580      -.000677                    
P 32  -8138.776967 -20151.280881  15825.385849    312.277263                    
V 32   4242.421285 -18813.612938 -22216.199214       .019977                    
EOF
